[{"OBJECT_NAME":"ONEWEB-0593","OBJECT_ID":"2022-166T","EPOCH":"2026-03-09T15:26:05.779680","MEAN_MOTION":13.21826902,"ECCENTRICITY":0.00014976,"INCLINATION":87.9164,"RA_OF_ASC_NODE":263.8266,"ARG_OF_PERICENTER":94.5885,"MEAN_ANOMALY":265.542,"EPHEMERIS_TYPE":0,"CLASSIFICATION_TYPE":"U","NORAD_CAT_ID":54659,"ELEMENT_SET_NO":999,"REV_AT_EPOCH":15839,"BSTAR":0.00019980661,"MEAN_MOTION_DOT":9.6e-7,"MEAN_MOTION_DDOT":0},{"OBJECT_NAME":"DELTA 1 DEB","OBJECT_ID":"1975-052FM","EPOCH":"2026-03-09T06:49:09.931872","MEAN_MOTION":13.33761601,"ECCENTRICITY":0.00626615,"INCLINATION":99.8119,"RA_OF_ASC_NODE":194.4606,"ARG_OF_PERICENTER":87.0914,"MEAN_ANOMALY":303.3057,"EPHEMERIS_TYPE":0,"CLASSIFICATION_TYPE":"U","NORAD_CAT_ID":21492,"ELEMENT_SET_NO":999,"REV_AT_EPOCH":69541,"BSTAR":0.00027734431,"MEAN_MOTION_DOT":9.7e-7,"MEAN_MOTION_DDOT":0}]
